{
  "type": "FeatureCollection",
  "features": [
    {
      "type": "Feature",
      "properties": {
        "norad_id": 29904,
        "name": "FENGYUN 1C DEB",
        "group": "fengyun-1c-debris",
        "lat": -58.15570607037714,
        "lon": 35.28941688452935,
        "alt_km": 621.3675209102603,
        "timestamp": "2025-12-08T19:31:49.081975+00:00",
        "meta_object_name": "FENGYUN 1C DEB",
        "meta_object_id": "1999-025HA",
        "meta_epoch": "2025-12-08T01:30:24.940224",
        "meta_mean_motion": 14.4445166,
        "meta_eccentricity": 0.02080292,
        "meta_inclination": 99.0416,
        "meta_ra_of_asc_node": 19.6357,
        "meta_arg_of_pericenter": 332.6118,
        "meta_mean_anomaly": 26.4225,
        "meta_ephemeris_type": 0,
        "meta_classification_type": "U",
        "meta_norad_cat_id": 29904,
        "meta_element_set_no": 999,
        "meta_rev_at_epoch": 98996,
        "meta_bstar": 0.00059414101,
        "meta_mean_motion_dot": 2.611e-05,
        "meta_mean_motion_ddot": 0,
        "tle_line1": "1 29904U 99025HA  25342.06278866  .00002611  00000+0  59414-3 0  9993",
        "tle_line2": "2 29904  99.0416  19.6357 0208029 332.6118  26.4225 14.44451660989968"
      },
      "geometry": {
        "type": "Point",
        "coordinates": [
          35.28941688452935,
          -58.15570607037714
        ]
      }
    },
    {
      "type": "Feature",
      "properties": {
        "norad_id": 29906,
        "name": "FENGYUN 1C DEB",
        "group": "fengyun-1c-debris",
        "lat": 35.32671545645958,
        "lon": -87.73246284070574,
        "alt_km": 699.371934263293,
        "timestamp": "2025-12-08T19:31:49.081984+00:00",
        "meta_object_name": "FENGYUN 1C DEB",
        "meta_object_id": "1999-025HC",
        "meta_epoch": "2025-12-08T05:36:51.181344",
        "meta_mean_motion": 14.49505798,
        "meta_eccentricity": 0.00373414,
        "meta_inclination": 98.7061,
        "meta_ra_of_asc_node": 85.4345,
        "meta_arg_of_pericenter": 162.4477,
        "meta_mean_anomaly": 197.8015,
        "meta_ephemeris_type": 0,
        "meta_classification_type": "U",
        "meta_norad_cat_id": 29906,
        "meta_element_set_no": 999,
        "meta_rev_at_epoch": 98092,
        "meta_bstar": 0.0032988034,
        "meta_mean_motion_dot": 0.00012729,
        "meta_mean_motion_ddot": 0,
        "tle_line1": "1 29906U 99025HC  25342.23392571  .00012729  00000+0  32988-2 0  9991",
        "tle_line2": "2 29906  98.7061  85.4345 0037341 162.4477 197.8015 14.49505798980928"
      },
      "geometry": {
        "type": "Point",
        "coordinates": [
          -87.73246284070574,
          35.32671545645958
        ]
      }
    },
    {
      "type": "Feature",
      "properties": {
        "norad_id": 29907,
        "name": "FENGYUN 1C DEB",
        "group": "fengyun-1c-debris",
        "lat": 72.1509774206234,
        "lon": -100.67951412918455,
        "alt_km": 901.6392866602009,
        "timestamp": "2025-12-08T19:31:49.081994+00:00",
        "meta_object_name": "FENGYUN 1C DEB",
        "meta_object_id": "1999-025HD",
        "meta_epoch": "2025-12-08T03:58:34.876416",
        "meta_mean_motion": 14.11594197,
        "meta_eccentricity": 0.00835428,
        "meta_inclination": 99.1116,
        "meta_ra_of_asc_node": 48.7697,
        "meta_arg_of_pericenter": 262.3005,
        "meta_mean_anomaly": 151.9218,
        "meta_ephemeris_type": 0,
        "meta_classification_type": "U",
        "meta_norad_cat_id": 29907,
        "meta_element_set_no": 999,
        "meta_rev_at_epoch": 96534,
        "meta_bstar": 0.0019681416,
        "meta_mean_motion_dot": 3.65e-05,
        "meta_mean_motion_ddot": 0,
        "tle_line1": "1 29907U 99025HD  25342.16568144  .00003650  00000+0  19681-2 0  9993",
        "tle_line2": "2 29907  99.1116  48.7697 0083542 262.3005 151.9218 14.11594197965343"
      },
      "geometry": {
        "type": "Point",
        "coordinates": [
          -100.67951412918455,
          72.1509774206234
        ]
      }
    },
    {
      "type": "Feature",
      "properties": {
        "norad_id": 29909,
        "name": "FENGYUN 1C DEB",
        "group": "fengyun-1c-debris",
        "lat": 36.30105218340644,
        "lon": -87.10417857574139,
        "alt_km": 718.3129132809281,
        "timestamp": "2025-12-08T19:31:49.082003+00:00",
        "meta_object_name": "FENGYUN 1C DEB",
        "meta_object_id": "1999-025HF",
        "meta_epoch": "2025-12-08T05:57:06.520032",
        "meta_mean_motion": 14.55001383,
        "meta_eccentricity": 0.0038413,
        "meta_inclination": 98.6353,
        "meta_ra_of_asc_node": 85.902,
        "meta_arg_of_pericenter": 29.5662,
        "meta_mean_anomaly": 31.3673,
        "meta_ephemeris_type": 0,
        "meta_classification_type": "U",
        "meta_norad_cat_id": 29909,
        "meta_element_set_no": 999,
        "meta_rev_at_epoch": 98340,
        "meta_bstar": 0.0026224818,
        "meta_mean_motion_dot": 0.00011373,
        "meta_mean_motion_ddot": 0,
        "tle_line1": "1 29909U 99025HF  25342.24799213  .00011373  00000+0  26225-2 0  9990",
        "tle_line2": "2 29909  98.6353  85.9020 0038413  29.5662  31.3673 14.55001383983405"
      },
      "geometry": {
        "type": "Point",
        "coordinates": [
          -87.10417857574139,
          36.30105218340644
        ]
      }
    },
    {
      "type": "Feature",
      "properties": {
        "norad_id": 29911,
        "name": "FENGYUN 1C DEB",
        "group": "fengyun-1c-debris",
        "lat": 76.15168577403453,
        "lon": -12.487507670747222,
        "alt_km": 819.458981142503,
        "timestamp": "2025-12-08T19:31:49.082012+00:00",
        "meta_object_name": "FENGYUN 1C DEB",
        "meta_object_id": "1999-025HH",
        "meta_epoch": "2025-12-08T02:21:49.813344",
        "meta_mean_motion": 14.18833319,
        "meta_eccentricity": 0.00273543,
        "meta_inclination": 98.7155,
        "meta_ra_of_asc_node": 25.2902,
        "meta_arg_of_pericenter": 163.8381,
        "meta_mean_anomaly": 224.2928,
        "meta_ephemeris_type": 0,
        "meta_classification_type": "U",
        "meta_norad_cat_id": 29911,
        "meta_element_set_no": 999,
        "meta_rev_at_epoch": 97365,
        "meta_bstar": 0.00099047302,
        "meta_mean_motion_dot": 2.025e-05,
        "meta_mean_motion_ddot": 0,
        "tle_line1": "1 29911U 99025HH  25342.09849321  .00002025  00000+0  99047-3 0  9999",
        "tle_line2": "2 29911  98.7155  25.2902 0027354 163.8381 224.2928 14.18833319973650"
      },
      "geometry": {
        "type": "Point",
        "coordinates": [
          -12.487507670747222,
          76.15168577403453
        ]
      }
    },
    {
      "type": "Feature",
      "properties": {
        "norad_id": 29912,
        "name": "FENGYUN 1C DEB",
        "group": "fengyun-1c-debris",
        "lat": 56.04528691669277,
        "lon": 66.95724213495832,
        "alt_km": 773.8096296772419,
        "timestamp": "2025-12-08T19:31:49.082020+00:00",
        "meta_object_name": "FENGYUN 1C DEB",
        "meta_object_id": "1999-025HJ",
        "meta_epoch": "2025-12-08T06:12:15.569856",
        "meta_mean_motion": 14.42877357,
        "meta_eccentricity": 0.00427149,
        "meta_inclination": 98.7386,
        "meta_ra_of_asc_node": 79.5925,
        "meta_arg_of_pericenter": 231.8377,
        "meta_mean_anomaly": 182.8253,
        "meta_ephemeris_type": 0,
        "meta_classification_type": "U",
        "meta_norad_cat_id": 29912,
        "meta_element_set_no": 999,
        "meta_rev_at_epoch": 97974,
        "meta_bstar": 0.0029418518,
        "meta_mean_motion_dot": 9.901e-05,
        "meta_mean_motion_ddot": 0,
        "tle_line1": "1 29912U 99025HJ  25342.25851354  .00009901  00000+0  29419-2 0  9992",
        "tle_line2": "2 29912  98.7386  79.5925 0042714 231.8377 182.8253 14.42877357979745"
      },
      "geometry": {
        "type": "Point",
        "coordinates": [
          66.95724213495832,
          56.04528691669277
        ]
      }
    },
    {
      "type": "Feature",
      "properties": {
        "norad_id": 29913,
        "name": "FENGYUN 1C DEB",
        "group": "fengyun-1c-debris",
        "lat": -50.105184311373876,
        "lon": -7.563662028799593,
        "alt_km": 834.9356542275455,
        "timestamp": "2025-12-08T19:31:49.082030+00:00",
        "meta_object_name": "FENGYUN 1C DEB",
        "meta_object_id": "1999-025HK",
        "meta_epoch": "2025-12-07T23:33:31.802976",
        "meta_mean_motion": 14.07373793,
        "meta_eccentricity": 0.0061948,
        "meta_inclination": 98.7875,
        "meta_ra_of_asc_node": 340.9642,
        "meta_arg_of_pericenter": 285.1289,
        "meta_mean_anomaly": 129.9522,
        "meta_ephemeris_type": 0,
        "meta_classification_type": "U",
        "meta_norad_cat_id": 29913,
        "meta_element_set_no": 999,
        "meta_rev_at_epoch": 96898,
        "meta_bstar": 0.00043873696,
        "meta_mean_motion_dot": 7.07e-06,
        "meta_mean_motion_ddot": 0,
        "tle_line1": "1 29913U 99025HK  25341.98161809  .00000707  00000+0  43874-3 0  9998",
        "tle_line2": "2 29913  98.7875 340.9642 0061948 285.1289 129.9522 14.07373793968985"
      },
      "geometry": {
        "type": "Point",
        "coordinates": [
          -7.563662028799593,
          -50.105184311373876
        ]
      }
    }
  ]
}